{
  "type": "FeatureCollection",
  "features": [
    {
      "type": "Feature",
      "properties": {
        "norad_id": 66396,
        "name": "STARLINK-35669",
        "group": "last-30-days",
        "lat": -49.935595962103314,
        "lon": -131.5562220853795,
        "alt_km": 422.68419598040236,
        "timestamp": "2025-12-06T22:38:41.507085+00:00",
        "meta_object_name": "STARLINK-35669",
        "meta_object_id": "2025-257S",
        "meta_epoch": "2025-12-05T14:27:24.793056",
        "meta_mean_motion": 15.49619062,
        "meta_eccentricity": 0.00015262,
        "meta_inclination": 53.1591,
        "meta_ra_of_asc_node": 297.9221,
        "meta_arg_of_pericenter": 110.2235,
        "meta_mean_anomaly": 249.8938,
        "meta_ephemeris_type": 0,
        "meta_classification_type": "U",
        "meta_norad_cat_id": 66396,
        "meta_element_set_no": 999,
        "meta_rev_at_epoch": 527,
        "meta_bstar": 0.0020340148,
        "meta_mean_motion_dot": 0.00115623,
        "meta_mean_motion_ddot": 0,
        "tle_line1": "1 66396U 25257S   25339.60237029  .00115623  00000+0  20340-2 0  9990",
        "tle_line2": "2 66396  53.1591 297.9221 0001526 110.2235 249.8938 15.49619062  5276"
      },
      "geometry": {
        "type": "Point",
        "coordinates": [
          -131.5562220853795,
          -49.935595962103314
        ]
      }
    },
    {
      "type": "Feature",
      "properties": {
        "norad_id": 66397,
        "name": "STARLINK-35510",
        "group": "last-30-days",
        "lat": -52.39870318264112,
        "lon": -171.66397876127024,
        "alt_km": 447.07141299598607,
        "timestamp": "2025-12-06T22:38:41.507095+00:00",
        "meta_object_name": "STARLINK-35510",
        "meta_object_id": "2025-257T",
        "meta_epoch": "2025-12-06T14:00:01.999872",
        "meta_mean_motion": 15.43196158,
        "meta_eccentricity": 0.00010478,
        "meta_inclination": 53.1594,
        "meta_ra_of_asc_node": 293.2597,
        "meta_arg_of_pericenter": 84.292,
        "meta_mean_anomaly": 336.6187,
        "meta_ephemeris_type": 0,
        "meta_classification_type": "U",
        "meta_norad_cat_id": 66397,
        "meta_element_set_no": 999,
        "meta_rev_at_epoch": 550,
        "meta_bstar": -0.051411688,
        "meta_mean_motion_dot": -0.02057867,
        "meta_mean_motion_ddot": 0,
        "tle_line1": "1 66397U 25257T   25340.58335648 -.02057867  00000+0 -51412-1 0  9998",
        "tle_line2": "2 66397  53.1594 293.2597 0001047  84.2920 336.6187 15.43196158  5501"
      },
      "geometry": {
        "type": "Point",
        "coordinates": [
          -171.66397876127024,
          -52.39870318264112
        ]
      }
    },
    {
      "type": "Feature",
      "properties": {
        "norad_id": 66398,
        "name": "STARLINK-35642",
        "group": "last-30-days",
        "lat": -50.7876965908467,
        "lon": -135.25329669352126,
        "alt_km": 427.8613618721174,
        "timestamp": "2025-12-06T22:38:41.507107+00:00",
        "meta_object_name": "STARLINK-35642",
        "meta_object_id": "2025-257U",
        "meta_epoch": "2025-12-06T04:22:47.917920",
        "meta_mean_motion": 15.48674632,
        "meta_eccentricity": 9.202e-05,
        "meta_inclination": 53.1592,
        "meta_ra_of_asc_node": 295.1428,
        "meta_arg_of_pericenter": 161.1871,
        "meta_mean_anomaly": 198.9172,
        "meta_ephemeris_type": 0,
        "meta_classification_type": "U",
        "meta_norad_cat_id": 66398,
        "meta_element_set_no": 999,
        "meta_rev_at_epoch": 536,
        "meta_bstar": -0.0089627224,
        "meta_mean_motion_dot": -0.00460233,
        "meta_mean_motion_ddot": 0,
        "tle_line1": "1 66398U 25257U   25340.18249905 -.00460233  00000+0 -89627-2 0  9998",
        "tle_line2": "2 66398  53.1592 295.1428 0000920 161.1871 198.9172 15.48674632  5363"
      },
      "geometry": {
        "type": "Point",
        "coordinates": [
          -135.25329669352126,
          -50.7876965908467
        ]
      }
    },
    {
      "type": "Feature",
      "properties": {
        "norad_id": 66399,
        "name": "STARLINK-35657",
        "group": "last-30-days",
        "lat": -52.748054044732704,
        "lon": -168.08442997579695,
        "alt_km": 447.7088818800248,
        "timestamp": "2025-12-06T22:38:41.507117+00:00",
        "meta_object_name": "STARLINK-35657",
        "meta_object_id": "2025-257V",
        "meta_epoch": "2025-12-06T14:00:01.999872",
        "meta_mean_motion": 15.42918804,
        "meta_eccentricity": 8.55e-05,
        "meta_inclination": 53.159,
        "meta_ra_of_asc_node": 293.2545,
        "meta_arg_of_pericenter": 109.999,
        "meta_mean_anomaly": 313.4601,
        "meta_ephemeris_type": 0,
        "meta_classification_type": "U",
        "meta_norad_cat_id": 66399,
        "meta_element_set_no": 999,
        "meta_rev_at_epoch": 550,
        "meta_bstar": -0.050808869,
        "meta_mean_motion_dot": -0.02019289,
        "meta_mean_motion_ddot": 0,
        "tle_line1": "1 66399U 25257V   25340.58335648 -.02019289  00000+0 -50809-1 0  9995",
        "tle_line2": "2 66399  53.1590 293.2545 0000855 109.9990 313.4601 15.42918804  5503"
      },
      "geometry": {
        "type": "Point",
        "coordinates": [
          -168.08442997579695,
          -52.748054044732704
        ]
      }
    },
    {
      "type": "Feature",
      "properties": {
        "norad_id": 66400,
        "name": "STARLINK-35667",
        "group": "last-30-days",
        "lat": -47.15614872680137,
        "lon": -122.4510193808893,
        "alt_km": 424.6834296850029,
        "timestamp": "2025-12-06T22:38:41.507127+00:00",
        "meta_object_name": "STARLINK-35667",
        "meta_object_id": "2025-257W",
        "meta_epoch": "2025-12-06T04:21:09.466848",
        "meta_mean_motion": 15.49356007,
        "meta_eccentricity": 0.00018529,
        "meta_inclination": 53.1592,
        "meta_ra_of_asc_node": 295.135,
        "meta_arg_of_pericenter": 118.9172,
        "meta_mean_anomaly": 241.2023,
        "meta_ephemeris_type": 0,
        "meta_classification_type": "U",
        "meta_norad_cat_id": 66400,
        "meta_element_set_no": 999,
        "meta_rev_at_epoch": 536,
        "meta_bstar": -0.00068117353,
        "meta_mean_motion_dot": -0.00038213,
        "meta_mean_motion_ddot": 0,
        "tle_line1": "1 66400U 25257W   25340.18135957 -.00038213  00000+0 -68117-3 0  9994",
        "tle_line2": "2 66400  53.1592 295.1350 0001852 118.9172 241.2023 15.49356007  5361"
      },
      "geometry": {
        "type": "Point",
        "coordinates": [
          -122.4510193808893,
          -47.15614872680137
        ]
      }
    },
    {
      "type": "Feature",
      "properties": {
        "norad_id": 66401,
        "name": "STARLINK-35668",
        "group": "last-30-days",
        "lat": -47.05274266655015,
        "lon": -122.1672261305046,
        "alt_km": 429.7006569971527,
        "timestamp": "2025-12-06T22:38:41.507138+00:00",
        "meta_object_name": "STARLINK-35668",
        "meta_object_id": "2025-257X",
        "meta_epoch": "2025-12-06T08:00:01.999872",
        "meta_mean_motion": 15.49728436,
        "meta_eccentricity": 0.00015575,
        "meta_inclination": 53.1587,
        "meta_ra_of_asc_node": 294.4065,
        "meta_arg_of_pericenter": 90.2703,
        "meta_mean_anomaly": 39.9269,
        "meta_ephemeris_type": 0,
        "meta_classification_type": "U",
        "meta_norad_cat_id": 66401,
        "meta_element_set_no": 999,
        "meta_rev_at_epoch": 546,
        "meta_bstar": -0.033578695,
        "meta_mean_motion_dot": -0.01694206,
        "meta_mean_motion_ddot": 0,
        "tle_line1": "1 66401U 25257X   25340.33335648 -.01694206  00000+0 -33579-1 0  9994",
        "tle_line2": "2 66401  53.1587 294.4065 0001557  90.2703  39.9269 15.49728436  5469"
      },
      "geometry": {
        "type": "Point",
        "coordinates": [
          -122.1672261305046,
          -47.05274266655015
        ]
      }
    },
    {
      "type": "Feature",
      "properties": {
        "norad_id": 66402,
        "name": "STARLINK-35644",
        "group": "last-30-days",
        "lat": -46.12054897593313,
        "lon": -119.74686513537881,
        "alt_km": 423.25095189018975,
        "timestamp": "2025-12-06T22:38:41.507148+00:00",
        "meta_object_name": "STARLINK-35644",
        "meta_object_id": "2025-257Y",
        "meta_epoch": "2025-12-06T05:53:33.843840",
        "meta_mean_motion": 15.49361286,
        "meta_eccentricity": 7.923e-05,
        "meta_inclination": 53.1581,
        "meta_ra_of_asc_node": 294.8244,
        "meta_arg_of_pericenter": 85.5717,
        "meta_mean_anomaly": 274.5382,
        "meta_ephemeris_type": 0,
        "meta_classification_type": "U",
        "meta_norad_cat_id": 66402,
        "meta_element_set_no": 999,
        "meta_rev_at_epoch": 537,
        "meta_bstar": 0.0018840832,
        "meta_mean_motion_dot": 0.00105964,
        "meta_mean_motion_ddot": 0,
        "tle_line1": "1 66402U 25257Y   25340.24553060  .00105964  00000+0  18841-2 0  9996",
        "tle_line2": "2 66402  53.1581 294.8244 0000792  85.5717 274.5382 15.49361286  5378"
      },
      "geometry": {
        "type": "Point",
        "coordinates": [
          -119.74686513537881,
          -46.12054897593313
        ]
      }
    }
  ]
}